H1 CPF  1  DLR 2021 11 14 10  8182 technosat            
H2  1704205 6203    42829 2021 11 14 00 00 00 2021 11 21 00 00 00    60 1 1  0 0 0
H9
10 0 59538  64800.000000  0       5208494.151       4109215.086       2175264.309
10 0 59538  64860.000000  0       5364043.908       4115664.805       1744588.583
10 0 59538  64920.000000  0       5497048.416       4103572.335       1306535.183
10 0 59538  64980.000000  0       5606790.001       4073190.303        862957.100
10 0 59538  65040.000000  0       5692651.964       4024854.396        415730.445
10 0 59538  65100.000000  0       5754121.872       3958981.011        -33253.658
10 0 59538  65160.000000  0       5790794.355       3876064.538       -482097.187
10 0 59538  65220.000000  0       5802373.467       3776674.284       -928903.385
10 0 59538  65280.000000  0       5788674.472       3661451.012      -1371784.931
10 0 59538  65340.000000  0       5749625.123       3531103.175      -1808872.013
10 0 59538  65400.000000  0       5685266.375       3386402.835      -2238320.320
10 0 59538  65460.000000  0       5595752.580       3228181.330      -2658318.849
10 0 59538  65520.000000  0       5481351.191       3057324.692      -3067097.584
10 0 59538  65580.000000  0       5342441.924       2874768.829      -3462934.945
10 0 59538  65640.000000  0       5179515.450       2681494.551      -3844165.024
10 0 59538  65700.000000  0       4993171.486       2478522.372      -4209184.648
10 0 59538  65760.000000  0       4784116.292       2266907.114      -4556459.967
10 0 59538  65820.000000  0       4553159.822       2047732.488      -4884532.639
10 0 59538  65880.000000  0       4301212.446       1822105.632      -5192025.778
10 0 59538  65940.000000  0       4029281.173       1591151.588      -5477649.500
10 0 59538  66000.000000  0       3738465.504       1356007.791      -5740206.082
10 0 59538  66060.000000  0       3429952.877       1117818.553      -5978594.778
10 0 59538  66120.000000  0       3105013.665        877729.565      -6191816.178
10 0 59538  66180.000000  0       2764995.895        636882.494      -6378976.065
10 0 59538  66240.000000  0       2411319.653        396409.684      -6539288.931
10 0 59538  66300.000000  0       2045471.198        157428.963      -6672081.006
10 0 59538  66360.000000  0       1668996.874        -78961.427      -6776792.930
10 0 59538  66420.000000  0       1283496.669       -311687.801      -6852982.085
10 0 59538  66480.000000  0        890617.417       -539705.831      -6900324.339
10 0 59538  66540.000000  0        492045.900       -762005.116      -6918615.270
10 0 59538  66600.000000  0         89501.819       -977613.565      -6907771.025
10 0 59538  66660.000000  0       -315269.423      -1185601.549      -6867828.753
10 0 59538  66720.000000  0       -720504.102      -1385085.851      -6798946.669
10 0 59538  66780.000000  0      -1124427.742      -1575233.395      -6701403.607
10 0 59538  66840.000000  0      -1525262.750      -1755264.740      -6575598.112
10 0 59538  66900.000000  0      -1921236.143      -1924457.312      -6422047.029
10 0 59538  66960.000000  0      -2310587.257      -2082148.294      -6241383.629
10 0 59538  67020.000000  0      -2691575.463      -2227737.270      -6034355.371
10 0 59538  67080.000000  0      -3062487.936      -2360688.617      -5801821.227
10 0 59538  67140.000000  0      -3421647.442      -2480533.595      -5544748.537
10 0 59538  67200.000000  0      -3767420.100      -2586872.119      -5264209.357
10 0 59538  67260.000000  0      -4098222.993      -2679374.195      -4961376.274
10 0 59538  67320.000000  0      -4412531.603      -2757780.992      -4637517.812
10 0 59538  67380.000000  0      -4708887.073      -2821905.587      -4293993.407
10 0 59538  67440.000000  0      -4985903.284      -2871633.357      -3932247.947
10 0 59538  67500.000000  0      -5242273.669      -2906922.017      -3553805.874
10 0 59538  67560.000000  0      -5476777.739      -2927801.283      -3160264.885
10 0 59538  67620.000000  0      -5688287.265      -2934372.165      -2753289.229
10 0 59538  67680.000000  0      -5875772.046      -2926805.893      -2334602.644
10 0 59538  67740.000000  0      -6038305.239      -2905342.488      -1905981.001
10 0 59538  67800.000000  0      -6175068.285      -2870288.987      -1469244.657
10 0 59538  67860.000000  0      -6285355.334      -2822017.290      -1026250.504
10 0 59538  67920.000000  0      -6368577.070      -2760961.671       -578883.825
10 0 59538  67980.000000  0      -6424264.028      -2687615.959       -129050.012
10 0 59538  68040.000000  0      -6452069.354      -2602530.429        321333.864
10 0 59538  68100.000000  0      -6451770.951      -2506308.381        770347.604
10 0 59538  68160.000000  0      -6423272.967      -2399602.454       1216076.466
10 0 59538  68220.000000  0      -6366606.619      -2283110.687       1656619.743
10 0 59538  68280.000000  0      -6281930.329      -2157572.347       2090099.219
10 0 59538  68340.000000  0      -6169529.247      -2023763.576       2514667.446
10 0 59538  68400.000000  0      -6029814.265      -1882492.874       2928515.860
10 0 59538  68460.000000  0      -5863320.381      -1734596.462       3329882.815
10 0 59538  68520.000000  0      -5670704.343      -1580933.517       3717061.387
10 0 59538  68580.000000  0      -5452741.639      -1422381.305       4088406.778
10 0 59538  68640.000000  0      -5210322.972      -1259830.283       4442343.318
10 0 59538  68700.000000  0      -4944450.259      -1094179.233       4777371.101
10 0 59538  68760.000000  0      -4656232.164       -926330.419       5092072.291
10 0 59538  68820.000000  0      -4346879.164       -757184.789       5385117.042
10 0 59538  68880.000000  0      -4017698.130       -587637.219       5655269.078
10 0 59538  68940.000000  0      -3670086.410       -418571.833       5901390.745
10 0 59538  69000.000000  0      -3305525.583       -250857.456       6122447.602
10 0 59538  69060.000000  0      -2925574.813        -85343.218       6317512.545
10 0 59538  69120.000000  0      -2531863.902         77145.637       6485769.395
10 0 59538  69180.000000  0      -2126086.102        235811.730       6626516.052
10 0 59538  69240.000000  0      -1709990.659        389889.367       6739167.169
10 0 59538  69300.000000  0      -1285375.160        538648.182       6823256.315
10 0 59538  69360.000000  0       -854077.721        681396.516       6878437.661
10 0 59538  69420.000000  0       -417968.999        817484.568       6904487.200
10 0 59538  69480.000000  0         21055.908        946307.286       6901303.467
10 0 59538  69540.000000  0        461085.646       1067307.007       6868907.821
10 0 59538  69600.000000  0        900200.907       1179975.850       6807444.247
10 0 59538  69660.000000  0       1336482.744       1283857.823       6717178.635
10 0 59538  69720.000000  0       1768020.901       1378550.619       6598497.605
10 0 59538  69780.000000  0       2192922.095       1463707.122       6451906.872
10 0 59538  69840.000000  0       2609318.257       1539036.639       6278029.197
10 0 59538  69900.000000  0       3015374.789       1604305.833       6077601.877
10 0 59538  69960.000000  0       3409298.681       1659339.337       5851473.674
10 0 59538  70020.000000  0       3789346.407       1704020.068       5600601.303
10 0 59538  70080.000000  0       4153831.626       1738289.250       5326045.553
10 0 59538  70140.000000  0       4501132.709       1762146.161       5028967.017
10 0 59538  70200.000000  0       4829700.090       1775647.595       4710621.423
10 0 59538  70260.000000  0       5138063.429       1778907.009       4372354.512
10 0 59538  70320.000000  0       5424838.473       1772093.330       4015596.379
10 0 59538  70380.000000  0       5688733.376       1755429.509       3641855.319
10 0 59538  70440.000000  0       5928554.538       1729190.797       3252711.563
10 0 59538  70500.000000  0       6143212.241       1693702.713       2849810.737
10 0 59538  70560.000000  0       6331725.844       1649338.765       2434856.915
10 0 59538  70620.000000  0       6493228.475       1596517.925       2009605.356
10 0 59538  70680.000000  0       6626971.161       1535701.868       1575854.939
10 0 59538  70740.000000  0       6732326.361       1467391.981       1135440.451
10 0 59538  70800.000000  0       6808790.994       1392126.174        690224.774
10 0 59538  70860.000000  0       6855988.971       1310475.532        242090.880
10 0 59538  70920.000000  0       6873673.081       1223040.771       -207066.357
10 0 59538  70980.000000  0       6861726.167       1130448.550       -655348.364
10 0 59538  71040.000000  0       6820161.702       1033347.641      -1100861.010
10 0 59538  71100.000000  0       6749123.785        932404.998      -1541722.688
10 0 59538  71160.000000  0       6648886.594        828301.740      -1976072.357
10 0 59538  71220.000000  0       6519853.163        721729.113      -2402077.541
10 0 59538  71280.000000  0       6362553.534        613384.440      -2817942.103
10 0 59538  71340.000000  0       6177642.373        503967.070      -3221913.838
10 0 59538  71400.000000  0       5965896.018        394174.331      -3612291.882
10 0 59538  71460.000000  0       5728208.916        284697.537      -3987433.848
10 0 59538  71520.000000  0       5465589.534        176218.058      -4345762.637
10 0 59538  71580.000000  0       5179155.775         69403.483      -4685772.893
10 0 59538  71640.000000  0       4870129.981        -35096.091      -5006037.091
10 0 59538  71700.000000  0       4539833.541       -136651.628      -5305211.314
10 0 59538  71760.000000  0       4189681.068       -234658.580      -5582040.675
10 0 59538  71820.000000  0       3821174.238       -328540.164      -5835364.353
10 0 59538  71880.000000  0       3435895.220       -417750.479      -6064120.270
10 0 59538  71940.000000  0       3035499.752       -501777.408      -6267349.282
99
